start=new Date('2023-05-04T00:00:00.000Z').valueOf();
sats=[{"PERIAPSIS":"538.831","TLE_LINE2":"2 53426  53.2167  99.6560 0001313  97.1953 262.9189 15.08842069 41558","ECCENTRICITY":"0.00013130","NORAD_CAT_ID":"53426","INCLINATION":"53.2167","DECAY_DATE":null,"CLASSIFICATION_TYPE":"U","EPOCH":"2023-05-03T05:03:12.104928","RCS_SIZE":"LARGE","SITE":"AFETR","GP_ID":"231168006","FILE":"3899966","PERIOD":"95.437","MEAN_MOTION_DDOT":"0.0000000000000","COUNTRY_CODE":"US","MEAN_ANOMALY":"262.9189","EPHEMERIS_TYPE":"0","TIME_SYSTEM":"UTC","LAUNCH_DATE":"2022-08-10","SEMIMAJOR_AXIS":"6917.874","TLE_LINE1":"1 53426U 22097AQ  23123.21055677  .00001198  00000-0  93323-4 0  9997","ARG_OF_PERICENTER":"97.1953","REF_FRAME":"TEME","BSTAR":"0.00009332300000","CENTER_NAME":"EARTH","MEAN_MOTION":"15.08842069","OBJECT_ID":"2022-097AQ","OBJECT_NAME":"STARLINK-4558","APOAPSIS":"540.647","ELEMENT_SET_NO":"999","REV_AT_EPOCH":"4155","RA_OF_ASC_NODE":"99.6560","MEAN_ELEMENT_THEORY":"SGP4","MEAN_MOTION_DOT":"0.00001198","OBJECT_TYPE":"PAYLOAD"},{"OBJECT_ID":"2022-097AR","OBJECT_NAME":"STARLINK-4541","BSTAR":"0.00009007500000","MEAN_MOTION":"15.08839235","CENTER_NAME":"EARTH","OBJECT_TYPE":"PAYLOAD","MEAN_MOTION_DOT":"0.00001146","RA_OF_ASC_NODE":"108.7925","MEAN_ELEMENT_THEORY":"SGP4","REV_AT_EPOCH":"4144","ELEMENT_SET_NO":"999","APOAPSIS":"540.978","SITE":"AFETR","RCS_SIZE":"LARGE","CLASSIFICATION_TYPE":"U","DECAY_DATE":null,"EPOCH":"2023-05-03T08:49:43.370112","MEAN_MOTION_DDOT":"0.0000000000000","PERIOD":"95.438","GP_ID":"231166277","FILE":"3899966","ECCENTRICITY":"0.00017780","INCLINATION":"53.2156","NORAD_CAT_ID":"53427","TLE_LINE2":"2 53427  53.2156 108.7925 0001778  90.5681 269.5515 15.08839235 41449","PERIAPSIS":"538.518","ARG_OF_PERICENTER":"90.5681","TLE_LINE1":"1 53427U 22097AR  23123.36786308  .00001146  00000-0  90075-4 0  9990","REF_FRAME":"TEME","LAUNCH_DATE":"2022-08-10","SEMIMAJOR_AXIS":"6917.883","TIME_SYSTEM":"UTC","COUNTRY_CODE":"US","EPHEMERIS_TYPE":"0","MEAN_ANOMALY":"269.5515"},{"ELEMENT_SET_NO":"999","APOAPSIS":"540.681","OBJECT_TYPE":"PAYLOAD","MEAN_ELEMENT_THEORY":"SGP4","RA_OF_ASC_NODE":"96.3386","REV_AT_EPOCH":"4166","MEAN_MOTION_DOT":"-0.00000205","BSTAR":"0.00000518060000","CENTER_NAME":"EARTH","MEAN_MOTION":"15.08841266","OBJECT_ID":"2022-097AS","OBJECT_NAME":"STARLINK-4540","TIME_SYSTEM":"UTC","COUNTRY_CODE":"US","EPHEMERIS_TYPE":"0","MEAN_ANOMALY":"262.6849","TLE_LINE1":"1 53428U 22097AS  23123.93182825 -.00000205  00000-0  51806-5 0  9994","ARG_OF_PERICENTER":"97.4298","REF_FRAME":"TEME","LAUNCH_DATE":"2022-08-10","SEMIMAJOR_AXIS":"6917.877","TLE_LINE2":"2 53428  53.2161  96.3386 0001358  97.4298 262.6849 15.08841266 41668","PERIAPSIS":"538.802","DECAY_DATE":null,"CLASSIFICATION_TYPE":"U","EPOCH":"2023-05-03T22:21:49.960800","SITE":"AFETR","RCS_SIZE":"LARGE","GP_ID":"231199802","FILE":"3900281","PERIOD":"95.437","MEAN_MOTION_DDOT":"0.0000000000000","ECCENTRICITY":"0.00013580","NORAD_CAT_ID":"53428","INCLINATION":"53.2161"},{"CENTER_NAME":"EARTH","MEAN_MOTION":"15.08017640","BSTAR":"-0.00676430000000","OBJECT_NAME":"STARLINK-4543","OBJECT_ID":"2022-097AT","ELEMENT_SET_NO":"999","APOAPSIS":"546.609","OBJECT_TYPE":"PAYLOAD","REV_AT_EPOCH":"4112","MEAN_ELEMENT_THEORY":"SGP4","RA_OF_ASC_NODE":"98.1499","MEAN_MOTION_DOT":"-0.00104087","TLE_LINE2":"2 53429  53.2168  98.1499 0006284 101.5534 258.6164 15.08017640 41121","PERIAPSIS":"537.911","GP_ID":"231140516","FILE":"3899808","PERIOD":"95.490","MEAN_MOTION_DDOT":"0.0000000000000","EPOCH":"2023-05-03T12:55:56.832672","DECAY_DATE":null,"CLASSIFICATION_TYPE":"U","RCS_SIZE":"LARGE","SITE":"AFETR","NORAD_CAT_ID":"53429","INCLINATION":"53.2168","ECCENTRICITY":"0.00062840","TIME_SYSTEM":"UTC","MEAN_ANOMALY":"258.6164","EPHEMERIS_TYPE":"0","COUNTRY_CODE":"US","REF_FRAME":"TEME","TLE_LINE1":"1 53429U 22097AT  23123.53885223 -.00104087  00000-0 -67643-2 0  9990","ARG_OF_PERICENTER":"101.5534","SEMIMAJOR_AXIS":"6920.395","LAUNCH_DATE":"2022-08-10"},{"ECCENTRICITY":"0.00011590","NORAD_CAT_ID":"53430","INCLINATION":"53.2171","CLASSIFICATION_TYPE":"U","DECAY_DATE":null,"EPOCH":"2023-05-03T07:58:03.434016","RCS_SIZE":"LARGE","SITE":"AFETR","GP_ID":"231167507","PERIOD":"95.437","FILE":"3899966","MEAN_MOTION_DDOT":"0.0000000000000","PERIAPSIS":"538.938","TLE_LINE2":"2 53430  53.2171  98.9936 0001159  87.9770 272.1355 15.08841987 41555","LAUNCH_DATE":"2022-08-10","SEMIMAJOR_AXIS":"6917.874","TLE_LINE1":"1 53430U 22097AU  23123.33198419  .00000383  00000-0  42123-4 0  9994","ARG_OF_PERICENTER":"87.9770","REF_FRAME":"TEME","COUNTRY_CODE":"US","EPHEMERIS_TYPE":"0","MEAN_ANOMALY":"272.1355","TIME_SYSTEM":"UTC","OBJECT_ID":"2022-097AU","OBJECT_NAME":"STARLINK-4538","BSTAR":"0.00004212300000","CENTER_NAME":"EARTH","MEAN_MOTION":"15.08841987","RA_OF_ASC_NODE":"98.9936","MEAN_ELEMENT_THEORY":"SGP4","REV_AT_EPOCH":"4155","MEAN_MOTION_DOT":"0.00000383","OBJECT_TYPE":"PAYLOAD","APOAPSIS":"540.541","ELEMENT_SET_NO":"999"},{"APOAPSIS":"537.381","ELEMENT_SET_NO":"999","MEAN_MOTION_DOT":"0.00101252","REV_AT_EPOCH":"4166","MEAN_ELEMENT_THEORY":"SGP4","RA_OF_ASC_NODE":"96.3611","OBJECT_TYPE":"PAYLOAD","BSTAR":"0.00611760000000","MEAN_MOTION":"15.09852617","CENTER_NAME":"EARTH","OBJECT_ID":"2022-097AV","OBJECT_NAME":"STARLINK-4548","COUNTRY_CODE":"US","MEAN_ANOMALY":"293.8211","EPHEMERIS_TYPE":"0","TIME_SYSTEM":"UTC","LAUNCH_DATE":"2022-08-10","SEMIMAJOR_AXIS":"6914.787","ARG_OF_PERICENTER":"66.2892","TLE_LINE1":"1 53431U 22097AV  23123.93507865  .00101252  00000-0  61176-2 0  9994","REF_FRAME":"TEME","PERIAPSIS":"535.923","TLE_LINE2":"2 53431  53.2177  96.3611 0001054  66.2892 293.8211 15.09852617 41669","ECCENTRICITY":"0.00010540","INCLINATION":"53.2177","NORAD_CAT_ID":"53431","RCS_SIZE":"LARGE","SITE":"AFETR","DECAY_DATE":null,"CLASSIFICATION_TYPE":"U","EPOCH":"2023-05-03T22:26:30.795360","MEAN_MOTION_DDOT":"0.0000000000000","GP_ID":"231199554","FILE":"3900281","PERIOD":"95.374"},{"TLE_LINE2":"2 53432  53.2151  97.3445 0001378  82.5549 277.5599 15.08841685 41623","PERIAPSIS":"538.787","CLASSIFICATION_TYPE":"U","DECAY_DATE":null,"EPOCH":"2023-05-03T15:17:50.575488","SITE":"AFETR","RCS_SIZE":"LARGE","PERIOD":"95.437","GP_ID":"231200302","FILE":"3900281","MEAN_MOTION_DDOT":"0.0000000000000","ECCENTRICITY":"0.00013780","NORAD_CAT_ID":"53432","INCLINATION":"53.2151","TIME_SYSTEM":"UTC","COUNTRY_CODE":"US","MEAN_ANOMALY":"277.5599","EPHEMERIS_TYPE":"0","TLE_LINE1":"1 53432U 22097AW  23123.63739092  .00001153  00000-0  90533-4 0  9991","ARG_OF_PERICENTER":"82.5549","REF_FRAME":"TEME","LAUNCH_DATE":"2022-08-10","SEMIMAJOR_AXIS":"6917.875","BSTAR":"0.00009053300000","CENTER_NAME":"EARTH","MEAN_MOTION":"15.08841685","OBJECT_ID":"2022-097AW","OBJECT_NAME":"STARLINK-4557","ELEMENT_SET_NO":"999","APOAPSIS":"540.694","OBJECT_TYPE":"PAYLOAD","REV_AT_EPOCH":"4162","RA_OF_ASC_NODE":"97.3445","MEAN_ELEMENT_THEORY":"SGP4","MEAN_MOTION_DOT":"0.00001153"},{"CENTER_NAME":"EARTH","MEAN_MOTION":"15.08853303","BSTAR":"-0.00008654300000","OBJECT_NAME":"STARLINK-4549","OBJECT_ID":"2022-097AX","ELEMENT_SET_NO":"999","APOAPSIS":"540.823","OBJECT_TYPE":"PAYLOAD","MEAN_ELEMENT_THEORY":"SGP4","RA_OF_ASC_NODE":"96.2907","REV_AT_EPOCH":"4164","MEAN_MOTION_DOT":"-0.00001666","TLE_LINE2":"2 53433  53.2166  96.2907 0001616  88.7049 271.4128 15.08853303 41642","PERIAPSIS":"538.587","GP_ID":"231198554","FILE":"3900281","PERIOD":"95.437","MEAN_MOTION_DDOT":"0.0000000000000","CLASSIFICATION_TYPE":"U","DECAY_DATE":null,"EPOCH":"2023-05-03T22:11:13.363872","RCS_SIZE":"LARGE","SITE":"AFETR","NORAD_CAT_ID":"53433","INCLINATION":"53.2166","ECCENTRICITY":"0.00016160","TIME_SYSTEM":"UTC","MEAN_ANOMALY":"271.4128","EPHEMERIS_TYPE":"0","COUNTRY_CODE":"US","REF_FRAME":"TEME","TLE_LINE1":"1 53433U 22097AX  23123.92446023 -.00001666  00000-0 -86543-4 0  9990","ARG_OF_PERICENTER":"88.7049","SEMIMAJOR_AXIS":"6917.840","LAUNCH_DATE":"2022-08-10"},{"OBJECT_NAME":"STARLINK-4498","OBJECT_ID":"2022-097AY","CENTER_NAME":"EARTH","MEAN_MOTION":"15.08835824","BSTAR":"0.00005253500000","OBJECT_TYPE":"PAYLOAD","REV_AT_EPOCH":"4167","RA_OF_ASC_NODE":"96.1325","MEAN_ELEMENT_THEORY":"SGP4","MEAN_MOTION_DOT":"0.00000548","ELEMENT_SET_NO":"999","APOAPSIS":"540.680","GP_ID":"231198804","PERIOD":"95.438","FILE":"3900281","MEAN_MOTION_DDOT":"0.0000000000000","CLASSIFICATION_TYPE":"U","DECAY_DATE":null,"EPOCH":"2023-05-03T21:34:05.297088","SITE":"AFETR","RCS_SIZE":"LARGE","NORAD_CAT_ID":"53434","INCLINATION":"53.2171","ECCENTRICITY":"0.00013330","TLE_LINE2":"2 53434  53.2171  96.1325 0001333  91.5512 268.5633 15.08835824 41674","PERIAPSIS":"538.836","REF_FRAME":"TEME","TLE_LINE1":"1 53434U 22097AY  23123.89867242  .00000548  00000-0  52535-4 0  9997","ARG_OF_PERICENTER":"91.5512","SEMIMAJOR_AXIS":"6917.893","LAUNCH_DATE":"2022-08-10","TIME_SYSTEM":"UTC","MEAN_ANOMALY":"268.5633","EPHEMERIS_TYPE":"0","COUNTRY_CODE":"US"},{"OBJECT_NAME":"STARLINK-4542","OBJECT_ID":"2022-097AZ","CENTER_NAME":"EARTH","MEAN_MOTION":"15.08837507","BSTAR":"0.00004908100000","OBJECT_TYPE":"PAYLOAD","MEAN_ELEMENT_THEORY":"SGP4","RA_OF_ASC_NODE":"96.1760","REV_AT_EPOCH":"4164","MEAN_MOTION_DOT":"0.00000493","ELEMENT_SET_NO":"999","APOAPSIS":"540.696","PERIOD":"95.438","GP_ID":"231200053","FILE":"3900281","MEAN_MOTION_DDOT":"0.0000000000000","CLASSIFICATION_TYPE":"U","DECAY_DATE":null,"EPOCH":"2023-05-03T21:44:41.919936","SITE":"AFETR","RCS_SIZE":"LARGE","NORAD_CAT_ID":"53435","INCLINATION":"53.2171","ECCENTRICITY":"0.00013630","TLE_LINE2":"2 53435  53.2171  96.1760 0001363  88.0629 272.0519 15.08837507 41641","PERIAPSIS":"538.810","REF_FRAME":"TEME","TLE_LINE1":"1 53435U 22097AZ  23123.90604074  .00000493  00000-0  49081-4 0  9993","ARG_OF_PERICENTER":"88.0629","SEMIMAJOR_AXIS":"6917.888","LAUNCH_DATE":"2022-08-10","TIME_SYSTEM":"UTC","EPHEMERIS_TYPE":"0","MEAN_ANOMALY":"272.0519","COUNTRY_CODE":"US"}];
